STARLINK-36900          
1 67973U 26038N   26064.66667824 -.01543664  74810-3 -27598-2 0  9991
2 67973  97.2743  74.6415 0001058  85.1091 310.2474 16.01860316  2556
STARLINK-36901          
1 67974U 26038P   26064.66667824 -.01544972  74808-3 -27842-2 0  9994
2 67974  97.2743  74.6402 0001167  70.9973 321.6088 16.01722569  2559
STARLINK-36883          
1 67975U 26038Q   26064.66667824 -.01527862  73841-3 -26494-2 0  9992
2 67975  97.2737  74.6461 0001220  69.3646 336.6153 16.02384284  2555
STARLINK-36880          
1 67976U 26038R   26064.66667824 -.01539785  74574-3 -27320-2 0  9993
2 67976  97.2741  74.6425 0001146  75.1382 322.8940 16.01991508  2553
STARLINK-36904          
1 67977U 26038S   26064.66667824 -.01530904  74000-3 -26752-2 0  9990
2 67977  97.2737  74.6445 0001284  68.8039 334.5147 16.02251830  2559
STARLINK-36364          
1 67978U 26038T   26064.66667824 -.01531318  74433-3 -26059-2 0  9991
2 67978  97.2731  74.6485 0001111  86.3542 325.8417 16.02707221  2554
STARLINK-36359          
1 67979U 26038U   26064.66667824 -.01537627  74475-3 -27108-2 0  9993
2 67979  97.2738  74.6430 0001101  81.4662 318.8111 16.02101424  2556
STARLINK-36882          
1 67980U 26038V   26064.66667824 -.01531379  74307-3 -26290-2 0  9998
2 67980  97.2734  74.6470 0001238  73.2358 336.0036 16.02556512  2550
STARLINK-36874          
1 67981U 26038W   26064.66667824 -.01507287  72351-3 -25511-2 0  9992
2 67981  97.2733  74.6494 0001218  75.1212 339.2772 16.02796736  2550
STARLINK-36879          
1 67982U 26038X   26064.66667824 -.01513866  73060-3 -25414-2 0  9993
2 67982  97.2730  74.6506 0001193  68.2396 348.8093 16.02936730  2552
STARLINK-36867          
1 67983U 26038Y   26064.66667824 -.01499148  71970-3 -24775-2 0  9997
2 67983  97.2728  74.6531 0001234  69.2409 353.2085 16.03202140  2553
STARLINK-36266          
1 67984U 26038Z   26064.66667824 -.01510631  72900-3 -25135-2 0  9994
2 67984  97.2730  74.6520 0001319  66.0763 353.9280 16.03088003  2528
STARLINK-36802          
1 67985U 26038AA  26064.66667824 -.01496739  71849-3 -24573-2 0  9993
2 67985  97.2727  74.6538 0001139  90.1085 334.5754 16.03313831  2553
STARLINK-36535          
1 67986U 26039A   26064.66667824 -.01525660  68154-3 -35856-2 0  9992
2 67986  42.9979  79.8832 0001798 274.4972 115.1659 15.96052941  2232
STARLINK-36744          
1 67987U 26039B   26064.66667824 -.01519473  67733-3 -35466-2 0  9997
2 67987  42.9978  79.8791 0001830 271.7505 119.4599 15.96177523  2239
STARLINK-36734          
1 67988U 26039C   26064.66667824 -.01514022  67388-3 -35056-2 0  9994
2 67988  42.9980  79.8742 0001837 273.5291 119.5755 15.96323344  2237
