[{"OBJECT_NAME":"STARLINK-36900","OBJECT_ID":"2026-038N","EPOCH":"2026-03-05T16:00:00.999936","MEAN_MOTION":16.01860316,"ECCENTRICITY":0.0001058,"INCLINATION":97.2743,"RA_OF_ASC_NODE":74.6415,"ARG_OF_PERICENTER":85.1091,"MEAN_ANOMALY":310.2474,"EPHEMERIS_TYPE":0,"CLASSIFICATION_TYPE":"U","NORAD_CAT_ID":67973,"ELEMENT_SET_NO":999,"REV_AT_EPOCH":255,"BSTAR":-0.0027598,"MEAN_MOTION_DOT":-0.01543664,"MEAN_MOTION_DDOT":0.0007481},{"OBJECT_NAME":"STARLINK-36901","OBJECT_ID":"2026-038P","EPOCH":"2026-03-05T16:00:00.999936","MEAN_MOTION":16.01722569,"ECCENTRICITY":0.0001167,"INCLINATION":97.2743,"RA_OF_ASC_NODE":74.6402,"ARG_OF_PERICENTER":70.9973,"MEAN_ANOMALY":321.6088,"EPHEMERIS_TYPE":0,"CLASSIFICATION_TYPE":"U","NORAD_CAT_ID":67974,"ELEMENT_SET_NO":999,"REV_AT_EPOCH":255,"BSTAR":-0.0027842,"MEAN_MOTION_DOT":-0.01544972,"MEAN_MOTION_DDOT":0.00074808},{"OBJECT_NAME":"STARLINK-36883","OBJECT_ID":"2026-038Q","EPOCH":"2026-03-05T16:00:00.999936","MEAN_MOTION":16.02384284,"ECCENTRICITY":0.000122,"INCLINATION":97.2737,"RA_OF_ASC_NODE":74.6461,"ARG_OF_PERICENTER":69.3646,"MEAN_ANOMALY":336.6153,"EPHEMERIS_TYPE":0,"CLASSIFICATION_TYPE":"U","NORAD_CAT_ID":67975,"ELEMENT_SET_NO":999,"REV_AT_EPOCH":255,"BSTAR":-0.0026494,"MEAN_MOTION_DOT":-0.01527862,"MEAN_MOTION_DDOT":0.00073841},{"OBJECT_NAME":"STARLINK-36880","OBJECT_ID":"2026-038R","EPOCH":"2026-03-05T16:00:00.999936","MEAN_MOTION":16.01991508,"ECCENTRICITY":0.0001146,"INCLINATION":97.2741,"RA_OF_ASC_NODE":74.6425,"ARG_OF_PERICENTER":75.1382,"MEAN_ANOMALY":322.894,"EPHEMERIS_TYPE":0,"CLASSIFICATION_TYPE":"U","NORAD_CAT_ID":67976,"ELEMENT_SET_NO":999,"REV_AT_EPOCH":255,"BSTAR":-0.002732,"MEAN_MOTION_DOT":-0.01539785,"MEAN_MOTION_DDOT":0.00074574},{"OBJECT_NAME":"STARLINK-36904","OBJECT_ID":"2026-038S","EPOCH":"2026-03-05T16:00:00.999936","MEAN_MOTION":16.0225183,"ECCENTRICITY":0.0001284,"INCLINATION":97.2737,"RA_OF_ASC_NODE":74.6445,"ARG_OF_PERICENTER":68.8039,"MEAN_ANOMALY":334.5147,"EPHEMERIS_TYPE":0,"CLASSIFICATION_TYPE":"U","NORAD_CAT_ID":67977,"ELEMENT_SET_NO":999,"REV_AT_EPOCH":255,"BSTAR":-0.0026752,"MEAN_MOTION_DOT":-0.01530904,"MEAN_MOTION_DDOT":0.00074},{"OBJECT_NAME":"STARLINK-36364","OBJECT_ID":"2026-038T","EPOCH":"2026-03-05T16:00:00.999936","MEAN_MOTION":16.02707221,"ECCENTRICITY":0.0001111,"INCLINATION":97.2731,"RA_OF_ASC_NODE":74.6485,"ARG_OF_PERICENTER":86.3542,"MEAN_ANOMALY":325.8417,"EPHEMERIS_TYPE":0,"CLASSIFICATION_TYPE":"U","NORAD_CAT_ID":67978,"ELEMENT_SET_NO":999,"REV_AT_EPOCH":255,"BSTAR":-0.0026059,"MEAN_MOTION_DOT":-0.01531318,"MEAN_MOTION_DDOT":0.00074433},{"OBJECT_NAME":"STARLINK-36359","OBJECT_ID":"2026-038U","EPOCH":"2026-03-05T16:00:00.999936","MEAN_MOTION":16.02101424,"ECCENTRICITY":0.0001101,"INCLINATION":97.2738,"RA_OF_ASC_NODE":74.643,"ARG_OF_PERICENTER":81.4662,"MEAN_ANOMALY":318.8111,"EPHEMERIS_TYPE":0,"CLASSIFICATION_TYPE":"U","NORAD_CAT_ID":67979,"ELEMENT_SET_NO":999,"REV_AT_EPOCH":255,"BSTAR":-0.0027108,"MEAN_MOTION_DOT":-0.01537627,"MEAN_MOTION_DDOT":0.00074475},{"OBJECT_NAME":"STARLINK-36882","OBJECT_ID":"2026-038V","EPOCH":"2026-03-05T16:00:00.999936","MEAN_MOTION":16.02556512,"ECCENTRICITY":0.0001238,"INCLINATION":97.2734,"RA_OF_ASC_NODE":74.647,"ARG_OF_PERICENTER":73.2358,"MEAN_ANOMALY":336.0036,"EPHEMERIS_TYPE":0,"CLASSIFICATION_TYPE":"U","NORAD_CAT_ID":67980,"ELEMENT_SET_NO":999,"REV_AT_EPOCH":255,"BSTAR":-0.002629,"MEAN_MOTION_DOT":-0.01531379,"MEAN_MOTION_DDOT":0.00074307},{"OBJECT_NAME":"STARLINK-36874","OBJECT_ID":"2026-038W","EPOCH":"2026-03-05T16:00:00.999936","MEAN_MOTION":16.02796736,"ECCENTRICITY":0.0001218,"INCLINATION":97.2733,"RA_OF_ASC_NODE":74.6494,"ARG_OF_PERICENTER":75.1212,"MEAN_ANOMALY":339.2772,"EPHEMERIS_TYPE":0,"CLASSIFICATION_TYPE":"U","NORAD_CAT_ID":67981,"ELEMENT_SET_NO":999,"REV_AT_EPOCH":255,"BSTAR":-0.0025511,"MEAN_MOTION_DOT":-0.01507287,"MEAN_MOTION_DDOT":0.00072351},{"OBJECT_NAME":"STARLINK-36879","OBJECT_ID":"2026-038X","EPOCH":"2026-03-05T16:00:00.999936","MEAN_MOTION":16.0293673,"ECCENTRICITY":0.0001193,"INCLINATION":97.273,"RA_OF_ASC_NODE":74.6506,"ARG_OF_PERICENTER":68.2396,"MEAN_ANOMALY":348.8093,"EPHEMERIS_TYPE":0,"CLASSIFICATION_TYPE":"U","NORAD_CAT_ID":67982,"ELEMENT_SET_NO":999,"REV_AT_EPOCH":255,"BSTAR":-0.0025414,"MEAN_MOTION_DOT":-0.01513866,"MEAN_MOTION_DDOT":0.0007306},{"OBJECT_NAME":"STARLINK-36867","OBJECT_ID":"2026-038Y","EPOCH":"2026-03-05T16:00:00.999936","MEAN_MOTION":16.0320214,"ECCENTRICITY":0.0001234,"INCLINATION":97.2728,"RA_OF_ASC_NODE":74.6531,"ARG_OF_PERICENTER":69.2409,"MEAN_ANOMALY":353.2085,"EPHEMERIS_TYPE":0,"CLASSIFICATION_TYPE":"U","NORAD_CAT_ID":67983,"ELEMENT_SET_NO":999,"REV_AT_EPOCH":255,"BSTAR":-0.0024775,"MEAN_MOTION_DOT":-0.01499148,"MEAN_MOTION_DDOT":0.0007197},{"OBJECT_NAME":"STARLINK-36266","OBJECT_ID":"2026-038Z","EPOCH":"2026-03-05T16:00:00.999936","MEAN_MOTION":16.03088003,"ECCENTRICITY":0.0001319,"INCLINATION":97.273,"RA_OF_ASC_NODE":74.652,"ARG_OF_PERICENTER":66.0763,"MEAN_ANOMALY":353.928,"EPHEMERIS_TYPE":0,"CLASSIFICATION_TYPE":"U","NORAD_CAT_ID":67984,"ELEMENT_SET_NO":999,"REV_AT_EPOCH":252,"BSTAR":-0.0025135,"MEAN_MOTION_DOT":-0.01510631,"MEAN_MOTION_DDOT":0.000729},{"OBJECT_NAME":"STARLINK-36802","OBJECT_ID":"2026-038AA","EPOCH":"2026-03-05T16:00:00.999936","MEAN_MOTION":16.03313831,"ECCENTRICITY":0.0001139,"INCLINATION":97.2727,"RA_OF_ASC_NODE":74.6538,"ARG_OF_PERICENTER":90.1085,"MEAN_ANOMALY":334.5754,"EPHEMERIS_TYPE":0,"CLASSIFICATION_TYPE":"U","NORAD_CAT_ID":67985,"ELEMENT_SET_NO":999,"REV_AT_EPOCH":255,"BSTAR":-0.0024573,"MEAN_MOTION_DOT":-0.01496739,"MEAN_MOTION_DDOT":0.00071849},{"OBJECT_NAME":"STARLINK-36535","OBJECT_ID":"2026-039A","EPOCH":"2026-03-05T16:00:00.999936","MEAN_MOTION":15.96052941,"ECCENTRICITY":0.0001798,"INCLINATION":42.9979,"RA_OF_ASC_NODE":79.8832,"ARG_OF_PERICENTER":274.4972,"MEAN_ANOMALY":115.1659,"EPHEMERIS_TYPE":0,"CLASSIFICATION_TYPE":"U","NORAD_CAT_ID":67986,"ELEMENT_SET_NO":999,"REV_AT_EPOCH":223,"BSTAR":-0.0035856,"MEAN_MOTION_DOT":-0.0152566,"MEAN_MOTION_DDOT":0.00068154},{"OBJECT_NAME":"STARLINK-36744","OBJECT_ID":"2026-039B","EPOCH":"2026-03-05T16:00:00.999936","MEAN_MOTION":15.96177523,"ECCENTRICITY":0.000183,"INCLINATION":42.9978,"RA_OF_ASC_NODE":79.8791,"ARG_OF_PERICENTER":271.7505,"MEAN_ANOMALY":119.4599,"EPHEMERIS_TYPE":0,"CLASSIFICATION_TYPE":"U","NORAD_CAT_ID":67987,"ELEMENT_SET_NO":999,"REV_AT_EPOCH":223,"BSTAR":-0.0035466,"MEAN_MOTION_DOT":-0.01519473,"MEAN_MOTION_DDOT":0.00067733},{"OBJECT_NAME":"STARLINK-36734","OBJECT_ID":"2026-039C","EPOCH":"2026-03-05T16:00:00.999936","MEAN_MOTION":15.96323344,"ECCENTRICITY":0.0001837,"INCLINATION":42.998,"RA_OF_ASC_NODE":79.8742,"ARG_OF_PERICENTER":273.5291,"MEAN_ANOMALY":119.5755,"EPHEMERIS_TYPE":0,"CLASSIFICATION_TYPE":"U","NORAD_CAT_ID":67988,"ELEMENT_SET_NO":999,"REV_AT_EPOCH":223,"BSTAR":-0.0035056,"MEAN_MOTION_DOT":-0.01514022,"MEAN_MOTION_DDOT":0.00067388}]
